NORAD_CAT_ID,OBJECT_NAME,OBJECT_TYPE,EPOCH,MEAN_MOTION,ECCENTRICITY,INCLINATION,RA_OF_ASC_NODE,ARG_OF_PERICENTER,MEAN_ANOMALY,BSTAR,MEAN_MOTION_DOT,MEAN_MOTION_DDOT,TLE_LINE0,TLE_LINE1,TLE_LINE2,SEMIMAJOR_AXIS,PERIOD,APOGEE,PERIGEE,DECAYED
53141.0,STARLINK-4103,PAYLOAD,2022-10-12 14:00:01,15.08815515,0.0002398,53.2179,359.1225,30.8177,290.7572,0.0042273,0.00067591,0.0,0 STARLINK-4103,1 53141U 22083K   22285.58334491  .00067591  00000-0  42273-2 0  9993,2 53141  53.2179 359.1225 0002398  30.8177 290.7572 15.08815515  1303,6917.955,95.439,541.479,538.161,0.0
53141.0,STARLINK-4103,PAYLOAD,2022-10-12 22:00:00,15.08875944,0.0002041,53.2176,357.6267,29.4895,303.6778,-0.0038661999999999,-0.00061357,0.0,0 STARLINK-4103,1 53141U 22083K   22285.91667824 -.00061357  00000-0 -38662-2 0  9992,2 53141  53.2176 357.6267 0002041  29.4895 303.6778 15.08875944  1309,6917.771,95.435,541.047,538.224,0.0
53141.0,STARLINK-4103,PAYLOAD,2022-10-13 06:00:00,15.0878422,0.0002306,53.2175,356.12699999999984,32.0175,312.684,0.009658,0.00156618,0.0,0 STARLINK-4103,1 53141U 22083K   22286.25001157  .00156618  00000-0  96580-2 0  9997,2 53141  53.2175 356.1270 0002306  32.0175 312.6840 15.08784220 14121,6918.051,95.441,541.511,538.321,0.0
53141.0,STARLINK-4103,PAYLOAD,2022-10-13 14:00:01,15.09008231,0.0002426,53.2177,354.6352,26.6203,329.6451,-0.014812,-0.00229671,0.0,0 STARLINK-4103,1 53141U 22083K   22286.58334491 -.00229671  00000-0 -14812-1 0  9992,2 53141  53.2177 354.6352 0002426  26.6203 329.6451 15.09008231  1305,6917.366,95.427,540.909,537.553,0.0
53141.0,STARLINK-4103,PAYLOAD,2022-10-13 20:00:01,15.08836479,0.0002296999999999,53.2173,353.5129,27.1662,247.9623,-3.0053e-05,-7.67e-06,0.0,0 STARLINK-4103,1 53141U 22083K   22286.83335648 -.00000767  00000-0 -30053-4 0  9996,2 53141  53.2173 353.5129 0002297  27.1662 247.9623 15.08836479 14211,6917.891,95.438,541.345,538.1669999999998,0.0
53141.0,STARLINK-4103,PAYLOAD,2022-10-13 22:00:00,15.08837902,0.000225,53.2175,353.1385,26.9408,341.0224,-0.00018023,-3.155e-05,0.0,0 STARLINK-4103,1 53141U 22083K   22286.91667824 -.00003155  00000-0 -18023-3 0  9995,2 53141  53.2175 353.1385 0002250  26.9408 341.0224 15.08837902  1308,6917.887,95.438,541.308,538.195,0.0
53141.0,STARLINK-4103,PAYLOAD,2022-10-14 14:00:01,15.08873283,0.0002447,53.2176,350.1462,25.8476,5.2810000000000015,-0.0035408,-0.00056254,0.0,0 STARLINK-4103,1 53141U 22083K   22287.58334491 -.00056254  00000-0 -35408-2 0  9993,2 53141  53.2176 350.1462 0002447  25.8476   5.2810 15.08873283  1305,6917.779,95.435,541.336,537.951,0.0
53141.0,STARLINK-4103,PAYLOAD,2022-10-14 20:00:01,15.08838438,0.0002359,53.2173,349.0238,23.1739,286.6675,-0.00023803,-4.075e-05,0.0,0 STARLINK-4103,1 53141U 22083K   22287.83334491 -.00004075  00000-0 -23803-3 0  9992,2 53141  53.2173 349.0238 0002359  23.1739 286.6675 15.08838438  1302,6917.885,95.438,541.382,538.118,0.0
53141.0,STARLINK-4103,PAYLOAD,2022-10-15 06:00:00,15.08837418,0.0002314,53.2175,347.1529,25.1556,29.1764,-6.0834e-05,-1.256e-05,0.0,0 STARLINK-4103,1 53141U 22083K   22288.25001157 -.00001256  00000-0 -60834-4 0  9993,2 53141  53.2175 347.1529 0002314  25.1556  29.1764 15.08837418 14430,6917.888000000001,95.438,541.354,538.1519999999998,0.0
53141.0,STARLINK-4103,PAYLOAD,2022-10-15 14:00:01,15.08837896,0.0002633,53.2179,345.6515,22.4544,43.5038,0.0015424,0.00024344,0.0,0 STARLINK-4103,1 53141U 22083K   22288.58334491  .00024344  00000-0  15424-2 0  9993,2 53141  53.2179 345.6515 0002633  22.4544  43.5038 15.08837896 14482,6917.887,95.438,541.573,537.93,0.0
53141.0,STARLINK-4103,PAYLOAD,2022-10-15 22:00:01,15.08852857,0.000241,53.2181,344.1533,19.9214,57.7127,-0.0050357,-0.00079579,0.0,0 STARLINK-4103,1 53141U 22083K   22288.91668981 -.00079579  00000-0 -50357-2 0  9990,2 53141  53.2181 344.1533 0002410  19.9214  57.7127 15.08852857  1304,6917.840999999999,95.437,541.373,538.039,0.0
53141.0,STARLINK-4103,PAYLOAD,2022-10-16 06:00:00,15.08808021,0.0002381999999999,53.2182,342.6572,19.1148,70.0255,-0.00017773,-3.113e-05,0.0,0 STARLINK-4103,1 53141U 22083K   22289.25001157 -.00003113  00000-0 -17773-3 0  9991,2 53141  53.2182 342.6572 0002382  19.1148  70.0255 15.08808021 14585,6917.978,95.44,541.491,538.195,0.0
53141.0,STARLINK-4103,PAYLOAD,2022-10-16 14:00:01,15.08784565,0.0002637,53.2179,341.1628,17.6401,83.0604,0.0039790999999999,0.00063516,0.0,0 STARLINK-4103,1 53141U 22083K   22289.58334491  .00063516  00000-0  39791-2 0  9991,2 53141  53.2179 341.1628 0002637  17.6401  83.0604 15.08784565  1309,6918.05,95.441,541.739,538.091,0.0
53141.0,STARLINK-4103,PAYLOAD,2022-10-16 22:00:00,15.08814393,0.0002431,53.2184,339.6652,19.0174,93.2415,0.0016492999999999,0.0002604,0.0,0 STARLINK-4103,1 53141U 22083K   22289.91667824  .00026040  00000-0  16493-2 0  9992,2 53141  53.2184 339.6652 0002431  19.0174  93.2415 15.08814393  1305,6917.959,95.439,541.505,538.1419999999998,0.0
53141.0,STARLINK-4103,PAYLOAD,2022-10-17 06:00:00,15.08852718,0.0002458,53.2184,338.1692,21.5323,102.2975,-0.00077711,-0.0001264,0.0,0 STARLINK-4103,1 53141U 22083K   22290.25001157 -.00012640  00000-0 -77711-3 0  9996,2 53141  53.2184 338.1692 0002458  21.5323 102.2975 15.08852718 14732,6917.842,95.437,541.4069999999998,538.006,0.0
53141.0,STARLINK-4103,PAYLOAD,2022-10-17 14:00:01,15.08824624,0.000272,53.2179,336.6742,19.9286,115.5254,0.0029721,0.00047312,0.0,0 STARLINK-4103,1 53141U 22083K   22290.58334491  .00047312  00000-0  29721-2 0  9991,2 53141  53.2179 336.6742 0002720  19.9286 115.5254 15.08824624  1307,6917.927,95.439,541.674,537.911,0.0
53141.0,STARLINK-4103,PAYLOAD,2022-10-17 22:00:00,15.08845936,0.0002452,53.2183,335.1762,20.9798,126.0706,-0.0012758,-0.0002054,0.0,0 STARLINK-4103,1 53141U 22083K   22290.91667824 -.00020540  00000-0 -12758-2 0  9995,2 53141  53.2183 335.1762 0002452  20.9798 126.0706 15.08845936  1308,6917.861999999999,95.437,541.424,538.031,0.0
53141.0,STARLINK-4103,PAYLOAD,2022-10-18 06:00:00,15.08833104,0.0002434,53.2182,333.6821,20.4751,138.1661,0.0022723,0.00036055,0.0,0 STARLINK-4103,1 53141U 22083K   22291.25001157  .00036055  00000-0  22723-2 0  9993,2 53141  53.2182 333.6821 0002434  20.4751 138.1661 15.08833104 14885,6917.901,95.438,541.45,538.0830000000002,0.0
53141.0,STARLINK-4103,PAYLOAD,2022-10-18 14:00:01,15.0883807,0.0002558,53.2179,332.1846,27.0933,143.0388,0.00018363,2.635e-05,0.0,0 STARLINK-4103,1 53141U 22083K   22291.58334491  .00002635  00000-0  18363-3 0  9992,2 53141  53.2179 332.1846 0002558  27.0933 143.0388 15.08838070 14938,6917.886,95.438,541.521,537.982,0.0
53141.0,STARLINK-4103,PAYLOAD,2022-10-18 22:00:00,15.08822537,0.0002313,53.2178,330.6866,28.6258,153.1178,0.0022463,0.00035627,0.0,0 STARLINK-4103,1 53141U 22083K   22291.91667824  .00035627  00000-0  22463-2 0  9990,2 53141  53.2178 330.6866 0002313  28.6258 153.1178 15.08822537  1305,6917.934,95.439,541.399,538.1990000000002,0.0
53141.0,STARLINK-4103,PAYLOAD,2022-10-19 14:00:01,15.08843056,0.0002557,53.2174,327.6958,27.74,177.202,0.0017127,0.00027078,0.0,0 STARLINK-4103,1 53141U 22083K   22292.58334491  .00027078  00000-0  17127-2 0  9997,2 53141  53.2174 327.6958 0002557  27.7400 177.2020 15.08843056  1300,6917.871,95.437,541.505,537.967,0.0
53141.0,STARLINK-4103,PAYLOAD,2022-10-19 22:00:00,15.08835513,0.0002243,53.2174,326.203,33.5691,183.0553,0.00015909,2.244e-05,0.0,0 STARLINK-4103,1 53141U 22083K   22292.91667824  .00002244  00000-0  15909-3 0  9998,2 53141  53.2174 326.2030 0002243  33.5691 183.0553 15.08835513 15136,6917.894,95.438,541.311,538.207,0.0
53141.0,STARLINK-4103,PAYLOAD,2022-10-20 06:00:00,15.08859286,0.0002411,53.2172,324.7023,30.0005,198.1555,-0.0010776,-0.00017407,0.0,0 STARLINK-4103,1 53141U 22083K   22293.25001157 -.00017407  00000-0 -10776-2 0  9992,2 53141  53.2172 324.7023 0002411  30.0005 198.1555 15.08859286 15184,6917.821,95.436,541.354,538.019,0.0
53141.0,STARLINK-4103,PAYLOAD,2022-10-20 14:00:01,15.08852877,0.0002568,53.2168,323.2076,26.8739,212.8919,-0.00060928,-9.976e-05,0.0,0 STARLINK-4103,1 53141U 22083K   22293.58334491 -.00009976  00000-0 -60928-3 0  9995,2 53141  53.2168 323.2076 0002568  26.8739 212.8919 15.08852877  1307,6917.840999999999,95.437,541.4830000000002,537.93,0.0
53141.0,STARLINK-4103,PAYLOAD,2022-10-20 22:00:00,15.08811508,0.0002353,53.217,321.7092,28.6387,222.7378,0.0028785,0.00045786,0.0,0 STARLINK-4103,1 53141U 22083K   22293.91667824  .00045786  00000-0  28785-2 0  9992,2 53141  53.2170 321.7092 0002353  28.6387 222.7378 15.08811508  1307,6917.967,95.439,541.46,538.205,0.0
53141.0,STARLINK-4103,PAYLOAD,2022-10-21 06:00:00,15.08856277,0.0002477,53.2172,320.2142,29.8147,233.1441,-0.0010206,-0.00016503,0.0,0 STARLINK-4103,1 53141U 22083K   22294.25001157 -.00016503  00000-0 -10206-2 0  9997,2 53141  53.2172 320.2142 0002477  29.8147 233.1441 15.08856277 15330,6917.831,95.437,541.409,537.982,0.0
53141.0,STARLINK-4103,PAYLOAD,2022-10-21 14:00:01,15.08856853,0.0002614,53.2166,318.7184,26.4414,248.1355,-0.00062223,-0.00010183,0.0,0 STARLINK-4103,1 53141U 22083K   22294.58334491 -.00010183  00000-0 -62223-3 0  9998,2 53141  53.2166 318.7184 0002614  26.4414 248.1355 15.08856853  1306,6917.829000000002,95.436,541.502,537.886,0.0
53141.0,STARLINK-4103,PAYLOAD,2022-10-21 22:00:00,15.08808128,0.0002409,53.2167,317.2194,28.0811,258.1141,0.0032549,0.00051851,0.0,0 STARLINK-4103,1 53141U 22083K   22294.91667824  .00051851  00000-0  32549-2 0  9996,2 53141  53.2167 317.2194 0002409  28.0811 258.1141 15.08808128  1309,6917.978,95.44,541.509,538.1759999999998,0.0
53141.0,STARLINK-4103,PAYLOAD,2022-10-22 06:00:00,15.0886501,0.0002522,53.2167,315.7241,27.5628,270.2081,-0.0043193999999999,-0.0006843,0.0,0 STARLINK-4103,1 53141U 22083K   22295.25001157 -.00068430  00000-0 -43194-2 0  9996,2 53141  53.2167 315.7241 0002522  27.5628 270.2081 15.08865010 15486,6917.804,95.436,541.414,537.924,0.0
